[{"OBJECT_NAME":"NSS-10","OBJECT_ID":"2005-003A","EPOCH":"2026-03-28T19:44:27.356640","MEAN_MOTION":1.00271945,"ECCENTRICITY":0.0003262,"INCLINATION":6.2498,"RA_OF_ASC_NODE":71.4127,"ARG_OF_PERICENTER":291.222,"MEAN_ANOMALY":82.2564,"EPHEMERIS_TYPE":0,"CLASSIFICATION_TYPE":"U","NORAD_CAT_ID":28526,"ELEMENT_SET_NO":999,"REV_AT_EPOCH":5235,"BSTAR":0,"MEAN_MOTION_DOT":-2.66e-6,"MEAN_MOTION_DDOT":0},{"OBJECT_NAME":"INMARSAT 4-F1","OBJECT_ID":"2005-009A","EPOCH":"2026-03-28T18:23:38.865120","MEAN_MOTION":1.00271974,"ECCENTRICITY":0.0003077,"INCLINATION":5.0612,"RA_OF_ASC_NODE":42.7187,"ARG_OF_PERICENTER":343.5643,"MEAN_ANOMALY":253.9005,"EPHEMERIS_TYPE":0,"CLASSIFICATION_TYPE":"U","NORAD_CAT_ID":28628,"ELEMENT_SET_NO":999,"REV_AT_EPOCH":7686,"BSTAR":0,"MEAN_MOTION_DOT":1.7e-7,"MEAN_MOTION_DDOT":0},{"OBJECT_NAME":"DIRECTV 8","OBJECT_ID":"2005-019A","EPOCH":"2026-03-28T15:55:51.214944","MEAN_MOTION":1.00270492,"ECCENTRICITY":0.0003253,"INCLINATION":0.0247,"RA_OF_ASC_NODE":177.3555,"ARG_OF_PERICENTER":200.0734,"MEAN_ANOMALY":288.5675,"EPHEMERIS_TYPE":0,"CLASSIFICATION_TYPE":"U","NORAD_CAT_ID":28659,"ELEMENT_SET_NO":999,"REV_AT_EPOCH":7626,"BSTAR":0,"MEAN_MOTION_DOT":0,"MEAN_MOTION_DDOT":0},{"OBJECT_NAME":"GALAXY 28 (G-28)","OBJECT_ID":"2005-022A","EPOCH":"2026-03-28T18:04:46.352928","MEAN_MOTION":1.002721,"ECCENTRICITY":0.0002284,"INCLINATION":3.0911,"RA_OF_ASC_NODE":79.9195,"ARG_OF_PERICENTER":288.0988,"MEAN_ANOMALY":62.2531,"EPHEMERIS_TYPE":0,"CLASSIFICATION_TYPE":"U","NORAD_CAT_ID":28702,"ELEMENT_SET_NO":999,"REV_AT_EPOCH":5116,"BSTAR":0,"MEAN_MOTION_DOT":-2.17e-6,"MEAN_MOTION_DDOT":0},{"OBJECT_NAME":"THAICOM 4","OBJECT_ID":"2005-028A","EPOCH":"2026-03-28T20:29:17.784384","MEAN_MOTION":1.00272279,"ECCENTRICITY":0.0001983,"INCLINATION":0.0437,"RA_OF_ASC_NODE":85.6584,"ARG_OF_PERICENTER":283.8321,"MEAN_ANOMALY":243.5879,"EPHEMERIS_TYPE":0,"CLASSIFICATION_TYPE":"U","NORAD_CAT_ID":28786,"ELEMENT_SET_NO":999,"REV_AT_EPOCH":5144,"BSTAR":0,"MEAN_MOTION_DOT":-3.82e-6,"MEAN_MOTION_DDOT":0},{"OBJECT_NAME":"ANIK F1R","OBJECT_ID":"2005-036A","EPOCH":"2026-03-28T16:38:38.704128","MEAN_MOTION":1.00271925,"ECCENTRICITY":0.0003012,"INCLINATION":4.1076,"RA_OF_ASC_NODE":77.5637,"ARG_OF_PERICENTER":304.6315,"MEAN_ANOMALY":306.2586,"EPHEMERIS_TYPE":0,"CLASSIFICATION_TYPE":"U","NORAD_CAT_ID":28868,"ELEMENT_SET_NO":999,"REV_AT_EPOCH":4564,"BSTAR":0,"MEAN_MOTION_DOT":-9.1e-7,"MEAN_MOTION_DDOT":0},{"OBJECT_NAME":"SYRACUSE 3A","OBJECT_ID":"2005-041B","EPOCH":"2026-03-28T16:42:54.202752","MEAN_MOTION":1.00269824,"ECCENTRICITY":0.0003751,"INCLINATION":4.438,"RA_OF_ASC_NODE":76.8209,"ARG_OF_PERICENTER":289.6502,"MEAN_ANOMALY":116.5664,"EPHEMERIS_TYPE":0,"CLASSIFICATION_TYPE":"U","NORAD_CAT_ID":28885,"ELEMENT_SET_NO":999,"REV_AT_EPOCH":7494,"BSTAR":0,"MEAN_MOTION_DOT":1.15e-6,"MEAN_MOTION_DDOT":0},{"OBJECT_NAME":"INMARSAT 4-F2","OBJECT_ID":"2005-044A","EPOCH":"2026-03-28T13:25:51.619008","MEAN_MOTION":1.00271063,"ECCENTRICITY":0.0002935,"INCLINATION":4.991,"RA_OF_ASC_NODE":43.7951,"ARG_OF_PERICENTER":337.4395,"MEAN_ANOMALY":149.6921,"EPHEMERIS_TYPE":0,"CLASSIFICATION_TYPE":"U","NORAD_CAT_ID":28899,"ELEMENT_SET_NO":999,"REV_AT_EPOCH":7471,"BSTAR":0,"MEAN_MOTION_DOT":-2.76e-6,"MEAN_MOTION_DDOT":0},{"OBJECT_NAME":"METEOSAT-9 (MSG-2)","OBJECT_ID":"2005-049B","EPOCH":"2026-03-28T13:17:21.413184","MEAN_MOTION":1.00272852,"ECCENTRICITY":1.89e-5,"INCLINATION":9.1814,"RA_OF_ASC_NODE":54.9434,"ARG_OF_PERICENTER":125.5968,"MEAN_ANOMALY":250.3933,"EPHEMERIS_TYPE":0,"CLASSIFICATION_TYPE":"U","NORAD_CAT_ID":28912,"ELEMENT_SET_NO":999,"REV_AT_EPOCH":619,"BSTAR":0,"MEAN_MOTION_DOT":1.11e-6,"MEAN_MOTION_DDOT":0},{"OBJECT_NAME":"EUTELSAT 174A","OBJECT_ID":"2005-052A","EPOCH":"2026-03-28T18:31:38.570016","MEAN_MOTION":1.00272626,"ECCENTRICITY":0.0006342,"INCLINATION":4.0163,"RA_OF_ASC_NODE":77.5024,"ARG_OF_PERICENTER":290.9437,"MEAN_ANOMALY":269.6211,"EPHEMERIS_TYPE":0,"CLASSIFICATION_TYPE":"U","NORAD_CAT_ID":28924,"ELEMENT_SET_NO":999,"REV_AT_EPOCH":5152,"BSTAR":0,"MEAN_MOTION_DOT":-7.0e-8,"MEAN_MOTION_DDOT":0},{"OBJECT_NAME":"ECHOSTAR 10","OBJECT_ID":"2006-003A","EPOCH":"2026-03-28T15:57:58.512384","MEAN_MOTION":1.00271294,"ECCENTRICITY":0.0001636,"INCLINATION":0.0416,"RA_OF_ASC_NODE":27.22,"ARG_OF_PERICENTER":306.1493,"MEAN_ANOMALY":341.9936,"EPHEMERIS_TYPE":0,"CLASSIFICATION_TYPE":"U","NORAD_CAT_ID":28935,"ELEMENT_SET_NO":999,"REV_AT_EPOCH":7365,"BSTAR":0,"MEAN_MOTION_DOT":-7.5e-7,"MEAN_MOTION_DDOT":0},{"OBJECT_NAME":"SPAINSAT","OBJECT_ID":"2006-007A","EPOCH":"2026-03-28T13:36:52.727616","MEAN_MOTION":1.00272931,"ECCENTRICITY":0.0004499,"INCLINATION":0.3552,"RA_OF_ASC_NODE":88.0118,"ARG_OF_PERICENTER":286.3879,"MEAN_ANOMALY":345.59,"EPHEMERIS_TYPE":0,"CLASSIFICATION_TYPE":"U","NORAD_CAT_ID":28945,"ELEMENT_SET_NO":999,"REV_AT_EPOCH":7340,"BSTAR":0,"MEAN_MOTION_DOT":-2.36e-6,"MEAN_MOTION_DDOT":0},{"OBJECT_NAME":"JCSAT-5A","OBJECT_ID":"2006-010A","EPOCH":"2026-03-28T20:32:47.448672","MEAN_MOTION":1.00271163,"ECCENTRICITY":0.0001509,"INCLINATION":0.9015,"RA_OF_ASC_NODE":85.1456,"ARG_OF_PERICENTER":318.789,"MEAN_ANOMALY":222.5879,"EPHEMERIS_TYPE":0,"CLASSIFICATION_TYPE":"U","NORAD_CAT_ID":29045,"ELEMENT_SET_NO":999,"REV_AT_EPOCH":7296,"BSTAR":0,"MEAN_MOTION_DOT":-3.47e-6,"MEAN_MOTION_DDOT":0},{"OBJECT_NAME":"ASTRA 1KR","OBJECT_ID":"2006-012A","EPOCH":"2026-03-28T19:37:38.798688","MEAN_MOTION":1.00274011,"ECCENTRICITY":0.0003455,"INCLINATION":0.2672,"RA_OF_ASC_NODE":82.0282,"ARG_OF_PERICENTER":280.4744,"MEAN_ANOMALY":137.1139,"EPHEMERIS_TYPE":0,"CLASSIFICATION_TYPE":"U","NORAD_CAT_ID":29055,"ELEMENT_SET_NO":999,"REV_AT_EPOCH":4489,"BSTAR":0,"MEAN_MOTION_DOT":1.0e-6,"MEAN_MOTION_DDOT":0},{"OBJECT_NAME":"GALAXY 16 (G-16)","OBJECT_ID":"2006-023A","EPOCH":"2026-03-28T16:01:20.688384","MEAN_MOTION":1.00271867,"ECCENTRICITY":0.0002694,"INCLINATION":0.0153,"RA_OF_ASC_NODE":190.2178,"ARG_OF_PERICENTER":181.6358,"MEAN_ANOMALY":315.554,"EPHEMERIS_TYPE":0,"CLASSIFICATION_TYPE":"U","NORAD_CAT_ID":29236,"ELEMENT_SET_NO":999,"REV_AT_EPOCH":7216,"BSTAR":0,"MEAN_MOTION_DOT":-1.46e-6,"MEAN_MOTION_DDOT":0},{"OBJECT_NAME":"EUTELSAT 33F","OBJECT_ID":"2006-032A","EPOCH":"2026-03-28T20:04:32.928672","MEAN_MOTION":1.0027409,"ECCENTRICITY":0.0003485,"INCLINATION":1.4546,"RA_OF_ASC_NODE":83.122,"ARG_OF_PERICENTER":284.9246,"MEAN_ANOMALY":152.4257,"EPHEMERIS_TYPE":0,"CLASSIFICATION_TYPE":"U","NORAD_CAT_ID":29270,"ELEMENT_SET_NO":999,"REV_AT_EPOCH":4650,"BSTAR":0,"MEAN_MOTION_DOT":1.37e-6,"MEAN_MOTION_DDOT":0},{"OBJECT_NAME":"JCSAT-3A","OBJECT_ID":"2006-033A","EPOCH":"2026-03-28T20:31:40.056672","MEAN_MOTION":1.002717,"ECCENTRICITY":0.0002247,"INCLINATION":0.0142,"RA_OF_ASC_NODE":121.3587,"ARG_OF_PERICENTER":253.8938,"MEAN_ANOMALY":246.9124,"EPHEMERIS_TYPE":0,"CLASSIFICATION_TYPE":"U","NORAD_CAT_ID":29272,"ELEMENT_SET_NO":999,"REV_AT_EPOCH":4693,"BSTAR":0,"MEAN_MOTION_DOT":-3.64e-6,"MEAN_MOTION_DDOT":0}]
