NSS-10                  
1 28526U 05003A   26087.82253885 -.00000266  00000+0  00000+0 0  9998
2 28526   6.2498  71.4127 0003262 291.2220  82.2564  1.00271945 52358
INMARSAT 4-F1           
1 28628U 05009A   26087.76642205  .00000017  00000+0  00000+0 0  9991
2 28628   5.0612  42.7187 0003077 343.5643 253.9005  1.00271974 76868
DIRECTV 8               
1 28659U 05019A   26087.66378721  .00000000  00000+0  00000+0 0  9996
2 28659   0.0247 177.3555 0003253 200.0734 288.5675  1.00270492 76264
GALAXY 28 (G-28)        
1 28702U 05022A   26087.75331427 -.00000217  00000+0  00000+0 0  9992
2 28702   3.0911  79.9195 0002284 288.0988  62.2531  1.00272100 51169
THAICOM 4               
1 28786U 05028A   26087.85367806 -.00000382  00000+0  00000+0 0  9994
2 28786   0.0437  85.6584 0001983 283.8321 243.5879  1.00272279 51443
ANIK F1R                
1 28868U 05036A   26087.69350352 -.00000091  00000+0  00000+0 0  9991
2 28868   4.1076  77.5637 0003012 304.6315 306.2586  1.00271925 45641
SYRACUSE 3A             
1 28885U 05041B   26087.69646068  .00000115  00000+0  00000+0 0  9994
2 28885   4.4380  76.8209 0003751 289.6502 116.5664  1.00269824 74947
INMARSAT 4-F2           
1 28899U 05044A   26087.55962522 -.00000276  00000+0  00000+0 0  9992
2 28899   4.9910  43.7951 0002935 337.4395 149.6921  1.00271063 74714
METEOSAT-9 (MSG-2)      
1 28912U 05049B   26087.55372006  .00000111  00000+0  00000+0 0  9992
2 28912   9.1814  54.9434 0000189 125.5968 250.3933  1.00272852  6198
EUTELSAT 174A           
1 28924U 05052A   26087.77197419 -.00000007  00000+0  00000+0 0  9991
2 28924   4.0163  77.5024 0006342 290.9437 269.6211  1.00272626 51521
ECHOSTAR 10             
1 28935U 06003A   26087.66526056 -.00000075  00000+0  00000+0 0  9996
2 28935   0.0416  27.2200 0001636 306.1493 341.9936  1.00271294 73657
SPAINSAT                
1 28945U 06007A   26087.56727694 -.00000236  00000+0  00000+0 0  9990
2 28945   0.3552  88.0118 0004499 286.3879 345.5900  1.00272931 73405
JCSAT-5A                
1 29045U 06010A   26087.85610473 -.00000347  00000+0  00000+0 0  9997
2 29045   0.9015  85.1456 0001509 318.7890 222.5879  1.00271163 72967
ASTRA 1KR               
1 29055U 06012A   26087.81781017  .00000100  00000+0  00000+0 0  9995
2 29055   0.2672  82.0282 0003455 280.4744 137.1139  1.00274011 44894
GALAXY 16 (G-16)        
1 29236U 06023A   26087.66760056 -.00000146  00000+0  00000+0 0  9992
2 29236   0.0153 190.2178 0002694 181.6358 315.5540  1.00271867 72165
EUTELSAT 33F            
1 29270U 06032A   26087.83649223  .00000137  00000+0  00000+0 0  9990
2 29270   1.4546  83.1220 0003485 284.9246 152.4257  1.00274090 46507
JCSAT-3A                
1 29272U 06033A   26087.85532473 -.00000364  00000+0  00000+0 0  9996
2 29272   0.0142 121.3587 0002247 253.8938 246.9124  1.00271700 46939
